[{"OBJECT_NAME":"YUNHAI-2 02A","OBJECT_ID":"2024-052A","EPOCH":"2026-03-09T22:30:56.528064","MEAN_MOTION":14.27921019,"ECCENTRICITY":0.00118103,"INCLINATION":50.0092,"RA_OF_ASC_NODE":143.2802,"ARG_OF_PERICENTER":158.7153,"MEAN_ANOMALY":201.4256,"EPHEMERIS_TYPE":0,"CLASSIFICATION_TYPE":"U","NORAD_CAT_ID":59280,"ELEMENT_SET_NO":999,"REV_AT_EPOCH":8404,"BSTAR":0.00011847106,"MEAN_MOTION_DOT":1.34e-6,"MEAN_MOTION_DDOT":0},{"OBJECT_NAME":"FENGYUN 1C DEB","OBJECT_ID":"1999-025AGJ","EPOCH":"2026-03-09T20:02:32.125056","MEAN_MOTION":14.14228963,"ECCENTRICITY":0.0079597,"INCLINATION":99.0462,"RA_OF_ASC_NODE":162.5321,"ARG_OF_PERICENTER":9.9536,"MEAN_ANOMALY":114.087,"EPHEMERIS_TYPE":0,"CLASSIFICATION_TYPE":"U","NORAD_CAT_ID":30471,"ELEMENT_SET_NO":999,"REV_AT_EPOCH":97673,"BSTAR":0.0013164412,"MEAN_MOTION_DOT":2.544e-5,"MEAN_MOTION_DDOT":0}]
